PRATHAM                 
1 41783U 16059A   17345.72718072  .00000062  00000-0  21515-4 0  9994
2 41783  98.1455  45.0514 0032801 325.8435  34.0656 14.62886355 64552
